MEAN_MOTION;ECCENTRICITY;INCLINATION;RA_OF_ASC_NODE;ARG_OF_PERICENTER;MEAN_ANOMALY;BSTAR;MEAN_MOTION_DOT;MEAN_MOTION_DDOT;TYPE
14.32839453;0.0002035;44.9952;146.9847;353.8867;6.1954;7.8453E-5;7.5E-7;0;Orbcomm
14.32839938;0.0001967;44.9951;142.0669;358.2353;1.8486;8.1923E-5;8.5E-7;0;Orbcomm
14.32840396;0.0001905;44.995;137.4769;2.5867;357.4989;8.7983E-5;1.02E-6;0;Orbcomm
14.32840512;0.0001884;44.995;135.8375;4.1127;355.9734;8.7054E-5;9.9E-7;0;Orbcomm
14.32840702;0.0001844;44.995;133.5425;6.5516;353.5354;8.8253E-5;1.02E-6;0;Orbcomm
14.32841002;0.0001797;44.9949;130.2638;9.6944;350.3937;8.8651E-5;1.03E-6;0;Orbcomm
14.32841058;0.0001775;44.995;128.6245;11.4778;348.6108;8.4181E-5;9.1E-7;0;Orbcomm
14.32841361;0.0001716;44.995;124.0346;16.4645;343.6257;7.6431E-5;7.0E-7;0;Orbcomm
14.32841678;0.0001647;44.995;119.4446;21.8377;338.2539;6.9509E-5;5.1E-7;0;Orbcomm
14.32841888;0.0001614;44.9951;116.4937;24.7617;335.3306;6.5212E-5;3.9E-7;0;Orbcomm
14.32841986;0.0001591;44.9951;114.5267;27.4326;332.6604;6.1946E-5;3.0E-7;0;Orbcomm
14.32842164;0.0001548;44.9951;111.2479;31.3124;328.7814;5.5755E-5;1.3E-7;0;Orbcomm
14.328425;0.0001475;44.9951;105.3465;39.1246;320.9707;5.457E-5;1.0E-7;0;Orbcomm
14.32842508;0.0001472;44.9951;105.0187;39.5093;320.586;5.3801E-5;8.0E-8;0;Orbcomm
14.32842828;0.0001422;44.9951;100.4286;46.0056;314.0907;5.754E-5;1.8E-7;0;Orbcomm
14.3284314;0.0001378;44.9951;95.8385;52.9197;307.1775;5.9957E-5;2.4E-7;0;Orbcomm
14.32843309;0.000135;44.9951;93.2154;56.9258;303.1718;6.0465E-5;2.6E-7;0;Orbcomm
14.3284351;0.000135;44.9952;91.2484;59.8169;300.2811;6.3629E-5;3.5E-7;0;Orbcomm
14.3284389;0.0001328;44.9953;86.9861;66.3586;293.74;6.5941E-5;4.1E-7;0;Orbcomm
14.32843929;0.0001327;44.9953;86.6583;66.9299;293.1687;6.621E-5;4.2E-7;0;Orbcomm
14.32844443;0.0001321;44.9954;82.0682;73.909;286.1901;7.0501E-5;5.4E-7;0;Orbcomm
14.32844938;0.0001323;44.9956;77.4781;81.0046;279.095;7.3418E-5;6.2E-7;0;Orbcomm
14.32845202;0.0001315;44.9957;74.8552;85.2676;274.832;7.4158E-5;6.4E-7;0;Orbcomm
14.32846903;0.000131;44.9959;70.2653;94.3734;265.7262;1.1025E-5;-1.1E-6;0;Orbcomm
14.32846986;0.000132;44.996;68.954;96.2454;263.8543;1.162E-5;-1.09E-6;0;Orbcomm
14.32847074;0.0001327;44.996;65.6754;101.9542;258.1453;1.3472E-5;-1.03E-6;0;Orbcomm
14.3284741;0.0001372;44.9961;63.7084;104.0243;256.0756;5.0637E-5;-1.0E-8;0;Orbcomm
14.32847515;0.0001393;44.9961;60.7576;108.4433;251.6565;4.8587E-5;-7.0E-8;0;Orbcomm
14.3284783;0.0001412;44.9963;56.4956;116.0894;244.0097;5.4036E-5;8.0E-8;0;Orbcomm
14.32847873;0.0001417;44.9963;56.1677;116.6145;243.4846;5.5153E-5;1.1E-7;0;Orbcomm
14.32848372;0.0001468;44.9964;51.5778;123.4131;236.6856;6.5825E-5;4.1E-7;0;Orbcomm
14.32848597;0.0001497;44.9964;50.2664;124.5664;235.5324;7.3423E-5;6.2E-7;0;Orbcomm
14.32848631;0.0001502;44.9964;49.9386;124.931;235.1677;7.3692E-5;6.2E-7;0;Orbcomm
14.32849047;0.0001537;44.9965;46.66;129.9562;230.1419;7.8566E-5;7.6E-7;0;Orbcomm
14.32849367;0.0001572;44.9965;44.693;132.237;227.8609;8.5494E-5;9.5E-7;0;Orbcomm
14.32849672;0.0001609;44.9966;42.0702;135.912;224.1854;8.6117E-5;9.7E-7;0;Orbcomm
14.32849771;0.0001616;44.9966;41.4145;136.8903;223.207;8.7631E-5;1.01E-6;0;Orbcomm
14.32850323;0.0001698;44.9968;36.1689;143.6882;216.408;8.536E-5;9.4E-7;0;Orbcomm
14.32850623;0.0001738;44.9969;33.2183;147.5192;212.5762;8.4053E-5;9.1E-7;0;Orbcomm
14.32850803;0.0001773;44.9969;31.2512;149.8792;210.2156;8.3965E-5;9.1E-7;0;Orbcomm
14.32851202;0.0001845;44.997;26.9892;155.0282;205.0654;8.5306E-5;9.4E-7;0;Orbcomm
14.32851685;0.0001929;44.9971;22.0716;160.7338;199.3581;8.9485E-5;1.06E-6;0;Orbcomm
14.32851929;0.0001982;44.9971;19.121;164.02;196.0709;8.8606E-5;1.03E-6;0;Orbcomm
14.32852538;0.0002073;44.9971;13.8755;170.3509;189.7377;9.0934E-5;1.1E-6;0;Orbcomm
14.32852777;0.0002104;44.9971;12.892;170.3184;189.7703;9.5873E-5;1.23E-6;0;Orbcomm
14.32853106;0.0002162;44.997;9.6135;173.8568;186.2305;9.1748E-5;1.12E-6;0;Orbcomm
14.32853332;0.0002195;44.997;7.9744;174.8215;185.2654;9.162E-5;1.12E-6;0;Orbcomm
14.32853742;0.0002269;44.997;4.368;178.043;182.0425;8.9056E-5;1.05E-6;0;Orbcomm
14.32853846;0.0002286;44.9969;3.0567;179.6061;180.4787;8.6428E-5;9.7E-7;0;Orbcomm
14.32854122;0.0002337;44.9968;0.4338;182.5091;177.5743;8.47E-5;9.3E-7;0;Orbcomm
14.32854609;0.0002456;44.9969;355.1881;186.2722;173.8094;8.0445E-5;8.1E-7;0;Orbcomm
14.32855023;0.0002545;44.9969;350.5981;190.5811;169.4981;8.075E-5;8.2E-7;0;Orbcomm
14.32855427;0.0002602;44.9968;346.3362;194.7;165.3771;8.3379E-5;8.9E-7;0;Orbcomm
14.32855807;0.0002663;44.9968;343.0577;197.9643;162.1109;8.9305E-5;1.05E-6;0;Orbcomm
14.32856074;0.0002688;44.9967;341.0905;199.5854;160.4889;9.3817E-5;1.18E-6;0;Orbcomm
14.32856556;0.0002777;44.9966;336.5006;203.1044;156.9677;9.4674E-5;1.2E-6;0;Orbcomm
14.3285707;0.0002865;44.9965;331.5829;207.1447;152.925;9.2514E-5;1.14E-6;0;Orbcomm
14.32857152;0.0002875;44.9965;330.9272;207.6522;152.4172;9.2479E-5;1.14E-6;0;Orbcomm
14.32857493;0.0002956;44.9964;327.3207;210.3718;149.6957;8.675E-5;9.8E-7;0;Orbcomm
14.32857777;0.0003003;44.9963;324.0422;213.1645;146.9013;8.2374E-5;8.6E-7;0;Orbcomm
14.32857925;0.000303;44.9962;322.403;214.2614;145.8037;7.8367E-5;7.5E-7;0;Orbcomm
14.32858858;0.0003204;44.996;312.2394;222.2103;137.8496;7.8017E-5;7.4E-7;0;Orbcomm
14.32859113;0.0003259;44.9959;308.3051;225.3788;134.6793;7.7372E-5;7.3E-7;0;Orbcomm
14.32859349;0.0003306;44.9959;305.3542;227.7097;132.347;7.8972E-5;7.7E-7;0;Orbcomm
14.32859471;0.000332;44.9958;303.7149;229.0787;130.9772;7.9506E-5;7.8E-7;0;Orbcomm
14.32859793;0.0003391;44.9958;299.1248;232.5027;127.5511;7.7837E-5;7.4E-7;0;Orbcomm
14.32859823;0.0003394;44.9957;298.797;232.7453;127.3084;7.8146E-5;7.5E-7;0;Orbcomm
14.32860135;0.0003463;44.9957;294.2069;236.1534;123.8983;7.299E-5;6.1E-7;0;Orbcomm
14.32860168;0.0003469;44.9957;293.8791;236.3449;123.7067;7.2685E-5;6.0E-7;0;Orbcomm
14.32860337;0.0003511;44.9957;291.2561;238.2905;121.7599;6.8531E-5;4.8E-7;0;Orbcomm
14.32860683;0.0003555;44.9957;286.6661;241.988;118.0606;6.2837E-5;3.3E-7;0;Orbcomm
14.3286067;0.0003554;44.9957;286.3382;242.2482;117.8004;6.0387E-5;2.6E-7;0;Orbcomm
14.32860963;0.0003614;44.9957;282.076;245.465;114.5819;5.4121E-5;9.0E-8;0;Orbcomm
14.32861332;0.0003662;44.9957;277.1582;249.2504;110.7949;5.3118E-5;6.0E-8;0;Orbcomm
14.32861357;0.0003663;44.9957;276.8303;249.4621;110.5833;5.3172E-5;6.0E-8;0;Orbcomm
14.3286168;0.0003702;44.9956;272.2403;253.1034;106.9406;5.5859E-5;1.3E-7;0;Orbcomm
14.32861744;0.0003714;44.9956;270.9289;254.0444;105.9993;5.6533E-5;1.5E-7;0;Orbcomm
14.32861774;0.0003717;44.9956;270.601;254.3166;105.727;5.7189E-5;1.7E-7;0;Orbcomm
14.32861973;0.0003749;44.9955;266.0109;257.8516;102.191;5.7352E-5;1.7E-7;0;Orbcomm
14.32861973;0.0003749;44.9955;266.0109;257.8516;102.191;5.7352E-5;1.7E-7;0;Orbcomm
14.32862233;0.0003783;44.9954;261.4208;261.2669;98.7749;5.9485E-5;2.3E-7;0;Orbcomm
14.32862401;0.0003807;44.9954;258.7978;263.125;96.9163;6.0544E-5;2.6E-7;0;Orbcomm
14.32862579;0.0003813;44.9954;256.8308;264.8138;95.2273;6.2371E-5;3.1E-7;0;Orbcomm
14.32862813;0.0003836;44.9954;253.5521;267.2895;92.7511;6.09E-5;2.7E-7;0;Orbcomm
14.32863393;0.0003853;44.9954;248.3064;271.356;88.6845;6.7642E-5;4.6E-7;0;Orbcomm
14.32863895;0.0003864;44.9954;242.7328;275.7345;84.3061;6.5449E-5;4.0E-7;0;Orbcomm
14.3286415;0.0003873;44.9955;239.1263;278.4209;81.6198;6.1582E-5;2.9E-7;0;Orbcomm
14.32864202;0.0003876;44.9954;238.1428;279.2268;80.8139;5.9818E-5;2.4E-7;0;Orbcomm
14.3286456;0.0003879;44.9954;234.8643;281.7826;78.2585;6.5498E-5;4.0E-7;0;Orbcomm
14.32864593;0.000388;44.9954;234.5364;282.0701;77.9711;6.6176E-5;4.2E-7;0;Orbcomm
14.3286461;0.0003879;44.9954;233.5529;282.8774;77.1639;6.247E-5;3.2E-7;0;Orbcomm
14.32864944;0.0003876;44.9953;229.2908;286.2294;73.8126;6.4776E-5;3.8E-7;0;Orbcomm
14.32865389;0.000387;44.9951;224.373;290.123;69.9199;7.1365E-5;5.6E-7;0;Orbcomm
14.32865389;0.000387;44.9951;224.373;290.123;69.9199;7.1365E-5;5.6E-7;0;Orbcomm
14.32865782;0.0003858;44.9949;219.783;293.7495;66.2946;7.3198E-5;6.1E-7;0;Orbcomm
14.32866143;0.0003843;44.9948;215.193;297.4117;62.6338;7.1208E-5;5.6E-7;0;Orbcomm
14.32866524;0.0003826;44.9947;210.603;301.138;58.909;6.8581E-5;4.8E-7;0;Orbcomm
14.32866902;0.00038;44.9947;206.0129;304.8814;55.1675;6.5143E-5;3.9E-7;0;Orbcomm
14.32867292;0.0003772;44.9947;201.095;308.9089;51.1421;6.2614E-5;3.2E-7;0;Orbcomm
14.32867612;0.0003744;44.9946;197.1607;312.1272;47.9255;6.3399E-5;3.4E-7;0;Orbcomm
14.32867638;0.0003741;44.9946;196.8328;312.4129;47.64;6.3453E-5;3.4E-7;0;Orbcomm
14.32867828;0.0003722;44.9946;193.882;314.8413;45.2131;6.1783E-5;3.0E-7;0;Orbcomm
14.32868029;0.00037;44.9945;191.9149;316.5698;43.4856;6.467E-5;3.8E-7;0;Orbcomm
14.32868317;0.0003667;44.9945;187.9806;319.9674;40.0901;6.5447E-5;4.0E-7;0;Orbcomm
14.32868373;0.0003659;44.9945;187.6527;320.3176;39.7402;6.6817E-5;4.4E-7;0;Orbcomm
14.32868408;0.0003655;44.9944;187.3249;320.5907;39.4673;6.7229E-5;4.5E-7;0;Orbcomm
14.32868823;0.0003603;44.9943;182.7348;324.6494;35.4113;7.0053E-5;5.2E-7;0;Orbcomm
14.32869291;0.0003557;44.9942;178.1447;328.8296;31.2339;7.3328E-5;6.1E-7;0;Orbcomm
14.32869502;0.0003528;44.9941;175.5217;331.1313;28.9337;7.101E-5;5.5E-7;0;Orbcomm
14.32869698;0.0003511;44.9941;173.5546;333.0507;27.0156;7.1236E-5;5.6E-7;0;Orbcomm
14.32869936;0.0003471;44.994;170.6037;335.7364;24.3319;6.7959E-5;4.7E-7;0;Orbcomm
14.32870072;0.0003452;44.994;168.6365;337.6776;22.3919;6.5566E-5;4.0E-7;0;Orbcomm
14.32870317;0.0003404;44.994;164.3742;341.7774;18.295;6.0072E-5;2.5E-7;0;Orbcomm
14.32870345;0.0003401;44.994;164.0463;342.0946;17.978;5.9959E-5;2.5E-7;0;Orbcomm
14.32870542;0.0003341;44.994;159.7839;346.2209;13.8546;5.5107E-5;1.1E-7;0;Orbcomm
14.32870712;0.0003292;44.994;156.5051;349.4101;10.6675;5.3919E-5;8.0E-8;0;Orbcomm
14.32870737;0.0003271;44.9941;155.5215;350.4117;9.6666;5.2902E-5;5.0E-8;0;Orbcomm
14.32871033;0.0003202;44.9941;150.9314;355.1034;4.978;5.6936E-5;1.6E-7;0;Orbcomm
14.32871067;0.0003189;44.9941;150.2757;355.7883;4.2936;5.6372E-5;1.5E-7;0;Orbcomm
14.32871318;0.0003129;44.9942;146.0134;0.3224;359.7624;5.7874E-5;1.9E-7;0;Orbcomm
